[{"OBJECT_NAME":"STARLINK-34806","OBJECT_ID":"2025-165K","EPOCH":"2026-03-09T22:28:33.330432","MEAN_MOTION":15.05665154,"ECCENTRICITY":3.883e-5,"INCLINATION":97.602,"RA_OF_ASC_NODE":147.412,"ARG_OF_PERICENTER":127.2294,"MEAN_ANOMALY":232.8968,"EPHEMERIS_TYPE":0,"CLASSIFICATION_TYPE":"U","NORAD_CAT_ID":65065,"ELEMENT_SET_NO":999,"REV_AT_EPOCH":3482,"BSTAR":0.00069838759,"MEAN_MOTION_DOT":0.00010035,"MEAN_MOTION_DDOT":0},{"OBJECT_NAME":"FENGYUN 1C DEB","OBJECT_ID":"1999-025DMH","EPOCH":"2026-03-08T12:22:59.285280","MEAN_MOTION":14.74467635,"ECCENTRICITY":0.01679532,"INCLINATION":98.8961,"RA_OF_ASC_NODE":332.7174,"ARG_OF_PERICENTER":174.5846,"MEAN_ANOMALY":185.7228,"EPHEMERIS_TYPE":0,"CLASSIFICATION_TYPE":"U","NORAD_CAT_ID":35153,"ELEMENT_SET_NO":999,"REV_AT_EPOCH":98481,"BSTAR":0.00043532495,"MEAN_MOTION_DOT":3.561e-5,"MEAN_MOTION_DDOT":0}]
